NORAD_CAT_ID,OBJECT_NAME,OBJECT_TYPE,EPOCH,MEAN_MOTION,ECCENTRICITY,INCLINATION,RA_OF_ASC_NODE,ARG_OF_PERICENTER,MEAN_ANOMALY,BSTAR,MEAN_MOTION_DOT,MEAN_MOTION_DDOT,TLE_LINE0,TLE_LINE1,TLE_LINE2,SEMIMAJOR_AXIS,PERIOD,APOGEE,PERIGEE,DECAYED
53798.0,STARLINK-4712,PAYLOAD,2023-01-04 21:42:54,15.08849338,0.0001742,53.2186,80.1935,54.1128,306.0026,1.009e-06,-2.72e-06,0.0,0 STARLINK-4712,1 53798U 22111AB  23004.90479471 -.00000272  00000-0  10090-5 0  9996,2 53798  53.2186  80.1935 0001742  54.1128 306.0026 15.08849338 18599,6917.852,95.437,540.922,538.512,0.0
53798.0,STARLINK-4712,PAYLOAD,2023-01-05 04:04:27,15.08838867,0.0001853,53.2193,79.005,52.3066,307.8094,0.00010141,1.326e-05,0.0,0 STARLINK-4712,1 53798U 22111AB  23005.16975757  .00001326  00000-0  10141-3 0  9998,2 53798  53.2193  79.0050 0001853  52.3066 307.8094 15.08838867 17820,6917.884,95.438,541.031,538.467,0.0
53798.0,STARLINK-4712,PAYLOAD,2023-01-05 13:36:45,15.08840393,0.0001831999999999,53.2196,77.2198,57.7705,302.3465,5.7555e-05,6.28e-06,0.0,0 STARLINK-4712,1 53798U 22111AB  23005.56719787  .00000628  00000-0  57555-4 0  9996,2 53798  53.2196  77.2198 0001832  57.7705 302.3465 15.08840393 18697,6917.879,95.438,541.012,538.477,0.0
53798.0,STARLINK-4712,PAYLOAD,2023-01-06 13:27:33,15.08841807,0.0001628,53.2178,72.7579,62.9037,297.2121,-0.0001708,-3.005e-05,0.0,0 STARLINK-4712,1 53798U 22111AB  23006.56080525 -.00003005  00000-0 -17080-3 0  9990,2 53798  53.2178  72.7579 0001628  62.9037 297.2121 15.08841807 18039,6917.875,95.437,540.866,538.614,0.0
53798.0,STARLINK-4712,PAYLOAD,2023-01-06 22:59:52,15.08830917,0.0001689,53.2171,70.9736,65.5277,294.5892,-0.00012619,-2.295e-05,0.0,0 STARLINK-4712,1 53798U 22111AB  23006.95825124 -.00002295  00000-0 -12619-3 0  9998,2 53798  53.2171  70.9736 0001689  65.5277 294.5892 15.08830917 18090,6917.908,95.438,540.942,538.605,0.0
53798.0,STARLINK-4712,PAYLOAD,2023-01-07 21:15:16,15.0883989,0.000149,53.218,66.8114,69.01899999999999,291.0961,-5.7367e-05,-1.201e-05,0.0,0 STARLINK-4712,1 53798U 22111AB  23007.88560871 -.00001201  00000-0 -57367-4 0  9992,2 53798  53.2180  66.8114 0001490  69.0190 291.0961 15.08839890 18231,6917.880999999999,95.438,540.776,538.715,0.0
53798.0,STARLINK-4712,PAYLOAD,2023-01-08 13:09:07,15.08849054,0.0001384,53.2173,63.8363,74.0878,286.0266,9.8762e-05,1.285e-05,0.0,0 STARLINK-4712,1 53798U 22111AB  23008.54799868  .00001285  00000-0  98762-4 0  9990,2 53798  53.2173  63.8363 0001384  74.0878 286.0266 15.08849054 18333,6917.853,95.437,540.675,538.76,0.0
53798.0,STARLINK-4712,PAYLOAD,2023-01-08 21:06:02,15.08847004,0.0001327,53.2182,62.3497,73.1982,286.9156,7.104e-05,8.43e-06,0.0,0 STARLINK-4712,1 53798U 22111AB  23008.87919989  .00000843  00000-0  71040-4 0  9993,2 53798  53.2182  62.3497 0001327  73.1982 286.9156 15.08847004 19193,6917.859,95.437,540.6419999999998,538.806,0.0
53798.0,STARLINK-4712,PAYLOAD,2023-01-08 22:41:26,15.08844092,0.0001511,53.217,62.0527,70.2826,289.8329,3.4798e-05,2.66e-06,0.0,0 STARLINK-4712,1 53798U 22111AB  23008.94544304  .00000266  00000-0  34798-4 0  9994,2 53798  53.2170  62.0527 0001511  70.2826 289.8329 15.08844092 18390,6917.868,95.437,540.778,538.688,0.0
53798.0,STARLINK-4712,PAYLOAD,2023-01-09 09:49:08,15.08834723,0.0001313,53.2172,59.9697,86.0152,274.099,0.00010792,1.4300000000000004e-05,0.0,0 STARLINK-4712,1 53798U 22111AB  23009.40912695  .00001430  00000-0  10792-3 0  9999,2 53798  53.2172  59.9697 0001313  86.0152 274.0990 15.08834723 19270,6917.897,95.438,540.67,538.8530000000002,0.0
53798.0,STARLINK-4712,PAYLOAD,2023-01-09 12:59:54,15.08842432,0.0001371,53.2175,59.37600000000001,80.9453,279.1694,6.9096e-05,8.12e-06,0.0,0 STARLINK-4712,1 53798U 22111AB  23009.54160370  .00000812  00000-0  69096-4 0  9994,2 53798  53.2175  59.3760 0001371  80.9453 279.1694 15.08842432 19294,6917.873000000001,95.437,540.686,538.79,0.0
53798.0,STARLINK-4712,PAYLOAD,2023-01-10 09:39:55,15.08843743,0.0001294,53.2171,55.5117,81.7154,278.3985,-7.0055e-05,-1.403e-05,0.0,0 STARLINK-4712,1 53798U 22111AB  23010.40272835 -.00001403  00000-0 -70055-4 0  9997,2 53798  53.2171  55.5117 0001294  81.7154 278.3985 15.08843743 18610,6917.8690000000015,95.437,540.629,538.839,0.0
53798.0,STARLINK-4712,PAYLOAD,2023-01-10 11:15:18,15.08849268,0.0001167,53.2176,55.2133,85.1374,274.9752,-9.9969e-05,-1.879e-05,0.0,0 STARLINK-4712,1 53798U 22111AB  23010.46896609 -.00001879  00000-0 -99969-4 0  9996,2 53798  53.2176  55.2133 0001167  85.1374 274.9752 15.08849268 19434,6917.852,95.437,540.524,538.91,0.0
53798.0,STARLINK-4712,PAYLOAD,2023-01-11 09:30:42,15.08842091,0.0001412,53.217,51.0493,104.3723,255.7426,1.328e-05,-7.7e-07,0.0,0 STARLINK-4712,1 53798U 22111AB  23011.39632534 -.00000077  00000-0  13280-4 0  9994,2 53798  53.2170  51.0493 0001412 104.3723 255.7426 15.08842091 19573,6917.874,95.437,540.716,538.762,0.0
53798.0,STARLINK-4712,PAYLOAD,2023-01-11 19:03:01,15.0883789,0.0001495,53.2173,49.2663,95.2877,264.8285,5.3164e-05,5.58e-06,0.0,0 STARLINK-4712,1 53798U 22111AB  23011.79376711  .00000558  00000-0  53164-4 0  9998,2 53798  53.2173  49.2663 0001495  95.2877 264.8285 15.08837890 18825,6917.887,95.438,540.786,538.7180000000002,0.0
53798.0,STARLINK-4712,PAYLOAD,2023-01-12 18:53:49,15.08834685,0.0001138,53.2193,44.8096,102.7231,257.3888,-4.9878e-05,-1.081e-05,0.0,0 STARLINK-4712,1 53798U 22111AB  23012.78737639 -.00001081  00000-0 -49878-4 0  9999,2 53798  53.2193  44.8096 0001138 102.7231 257.3888 15.08834685 18971,6917.897,95.438,540.549,538.974,0.0
53798.0,STARLINK-4712,PAYLOAD,2023-01-13 12:23:03,15.08849293,0.0001301,53.2176,41.5355,101.1866,258.9273,-2.7086e-07,-2.92e-06,0.0,0 STARLINK-4712,1 53798U 22111AB  23013.51600792 -.00000292  00000-0 -27086-6 0  9992,2 53798  53.2176  41.5355 0001301 101.1866 258.9273 15.08849293 19082,6917.852,95.437,540.617,538.817,0.0
53798.0,STARLINK-4712,PAYLOAD,2023-01-13 18:44:34,15.08858288,0.0001294,53.218,40.3471,100.6149,259.4989,8.8971e-05,1.129e-05,0.0,0 STARLINK-4712,1 53798U 22111AB  23013.78095693  .00001129  00000-0  88971-4 0  9995,2 53798  53.2180  40.3471 0001294 100.6149 259.4989 15.08858288 19121,6917.8240000000005,95.436,540.585,538.794,0.0
53798.0,STARLINK-4712,PAYLOAD,2023-01-14 05:52:15,15.08863108,6.87e-05,53.2166,38.2635,90.2296,269.8775,0.00024954,3.688e-05,0.0,0 STARLINK-4712,1 53798U 22111AB  23014.24462072  .00003688  00000-0  24954-3 0  9998,2 53798  53.2166  38.2635 0000687  90.2296 269.8775 15.08863108 19197,6917.81,95.436,540.15,539.2,0.0
53798.0,STARLINK-4712,PAYLOAD,2023-01-14 15:24:31,15.088896300000002,0.0001094999999999,53.2168,36.4792,122.4861,237.6237,0.00037218,5.648e-05,0.0,0 STARLINK-4712,1 53798U 22111AB  23014.64202919  .00005648  00000-0  37218-3 0  9999,2 53798  53.2168  36.4792 0001095 122.4861 237.6237 15.08889630 19254,6917.729,95.434,540.351,538.836,0.0
53798.0,STARLINK-4712,PAYLOAD,2023-01-14 18:35:16,15.08898547,0.0001119,53.2171,35.885,95.9634,264.1486,0.00044498,6.812e-05,0.0,0 STARLINK-4712,1 53798U 22111AB  23014.77449709  .00006812  00000-0  44498-3 0  9995,2 53798  53.2171  35.8850 0001119  95.9634 264.1486 15.08898547 19275,6917.701,95.434,540.341,538.7919999999999,0.0
53798.0,STARLINK-4712,PAYLOAD,2023-01-15 10:29:03,15.08926412,0.0001592,53.2176,32.9117,80.8339,279.2833,0.0005511,8.514e-05,0.0,0 STARLINK-4712,1 53798U 22111AB  23015.43684553  .00008514  00000-0  55110-3 0  9991,2 53798  53.2176  32.9117 0001592  80.8339 279.2833 15.08926412 19371,6917.616,95.432,540.5830000000001,538.38,0.0
53798.0,STARLINK-4712,PAYLOAD,2023-01-15 18:25:54,15.08962036,0.0001065999999999,53.2172,31.4252,94.3871,265.7243,0.00061827,9.598e-05,0.0,0 STARLINK-4712,1 53798U 22111AB  23015.76799605  .00009598  00000-0  61827-3 0  9997,2 53798  53.2172  31.4252 0001066  94.3871 265.7243 15.08962036 19421,6917.507,95.43,540.11,538.635,0.0
53798.0,STARLINK-4712,PAYLOAD,2023-01-16 07:08:52,15.09019098,0.0001571,53.2201,29.0438,87.1401,272.9771,0.00071232,0.00011122,0.0,0 STARLINK-4712,1 53798U 22111AB  23016.29782892  .00011122  00000-0  71232-3 0  9993,2 53798  53.2201  29.0438 0001571  87.1401 272.9771 15.09019098 19500,6917.3330000000005,95.426,540.285,538.111,0.0
53798.0,STARLINK-4712,PAYLOAD,2023-01-16 10:19:37,15.09022732,0.0001605,53.2199,28.4486,86.8457,273.2719,0.00071105,0.00011103,0.0,0 STARLINK-4712,1 53798U 22111AB  23016.43029139  .00011103  00000-0  71105-3 0  9995,2 53798  53.2199  28.4486 0001605  86.8457 273.2719 15.09022732 20335,6917.321999999999,95.426,540.297,538.077,0.0
53798.0,STARLINK-4712,PAYLOAD,2023-01-16 18:16:28,15.09035598,0.0001551,53.2208,26.9624,83.096,277.0208,0.00072862,0.00011389,0.0,0 STARLINK-4712,1 53798U 22111AB  23016.76144047  .00011389  00000-0  72862-3 0  9994,2 53798  53.2208  26.9624 0001551  83.0960 277.0208 15.09035598 19574,6917.283,95.425,540.22,538.075,0.0
53798.0,STARLINK-4712,PAYLOAD,2023-01-17 06:59:24,15.09084262,0.0001955,53.2167,24.5827,91.7198,268.4018,0.00066559,0.00010391,0.0,0 STARLINK-4712,1 53798U 22111AB  23017.29125460  .00010391  00000-0  66559-3 0  9999,2 53798  53.2167  24.5827 0001955  91.7198 268.4018 15.09084262 19658,6917.134,95.422,540.351,537.6469999999999,0.0
53798.0,STARLINK-4712,PAYLOAD,2023-01-17 10:10:08,15.09099517,0.0001250999999999,53.2174,23.9883,96.3877,263.7258,0.00048849,7.55e-05,0.0,0 STARLINK-4712,1 53798U 22111AB  23017.42370969  .00007550  00000-0  48849-3 0  9995,2 53798  53.2174  23.9883 0001251  96.3877 263.7258 15.09099517 20481,6917.087,95.421,539.818,538.087,0.0
53798.0,STARLINK-4712,PAYLOAD,2023-01-18 00:28:25,15.09135554,9.44e-05,53.2202,21.31,98.0624,262.0476,0.00049341,7.637e-05,0.0,0 STARLINK-4712,1 53798U 22111AB  23018.01973646  .00007637  00000-0  49341-3 0  9996,2 53798  53.2202  21.3100 0000944  98.0624 262.0476 15.09135554 19769,6916.977,95.419,539.495,538.189,0.0
